BEIDOU-2 G8             
1 44231U 19027A   26162.93701407 -.00000231  00000+0  00000+0 0  9996
2 44231   1.6434  74.5027 0010305 283.0812  24.5577  1.00272784 26023
COSMOS 2534 [GLONASS-M] 
1 44299U 19030A   26162.46758321  .00000121  00000+0  00000+0 0  9996
2 44299  64.3681 192.8091 0013354 275.1032 156.1197  2.13102304 54807
BEIDOU-3 IGSO-2         
1 44337U 19035A   26162.98574688 -.00000041  00000+0  00000+0 0  9995
2 44337  55.2458 158.9084 0039925 216.2500 359.8397  1.00267954 25613
NAVSTAR 78 (USA 293)    
1 44506U 19056A   26162.66223346 -.00000066  00000+0  00000+0 0  9990
2 44506  55.6400 331.3626 0061795 197.5682 160.4551  2.00569454 49955
BEIDOU-3 M24            
1 44542U 19061A   26162.33598668  .00000129  00000+0  00000+0 0  9991
2 44542  54.3962 182.9254 0008267 358.9131   1.1499  1.86229258 45684
BEIDOU-3 M23            
1 44543U 19061B   26162.73454990  .00000128  00000+0  00000+0 0  9994
2 44543  54.3946 182.8802 0005596 337.8055 201.1034  1.86227372 45691
EUTELSAT 5 WEST B       
1 44624U 19067A   26162.90738164 -.00000026  00000+0  00000+0 0  9995
2 44624   0.0625 354.4083 0002978  85.9791 141.5321  1.00271901 24382
BEIDOU-3 IGSO-3         
1 44709U 19073A   26136.81046384 -.00000217  00000+0  00000+0 0  9995
2 44709  54.8566 281.2355 0042953 189.4588 170.3676  1.00246251 24144
BEIDOU-3 M22            
1 44793U 19078A   26160.56479635 -.00000061  00000+0  00000+0 0  9998
2 44793  53.9433 300.0965 0006476  49.2798 310.7668  1.86227604 44501
BEIDOU-3 M21            
1 44794U 19078B   26162.85257053 -.00000067  00000+0  00000+0 0  9997
2 44794  53.9144 299.9773 0004338  47.8578 312.1638  1.86227891 44555
COSMOS 2544 [GLONASS-M] 
1 44850U 19088A   26160.99045334 -.00000023  00000+0  00000+0 0  9993
2 44850  65.5614  73.9710 0013431 259.4785 100.3880  2.13102164 50565
BEIDOU-3 M19            
1 44864U 19090A   26162.31127829 -.00000054  00000+0  00000+0 0  9993
2 44864  56.5531  62.9856 0018030 297.6207 256.7794  1.86231661 44129
BEIDOU-3 M20            
1 44865U 19090B   26161.09867501 -.00000050  00000+0  00000+0 0  9992
2 44865  56.5539  63.0605 0015925 311.2740 239.7297  1.86231666 44086
BEIDOU-3 G2             
1 45344U 20017A   26162.92418735 -.00000127  00000+0  00000+0 0  9995
2 45344   2.8522  47.2613 0002284  31.8310 233.9464  1.00272944 23203
COSMOS 2545 [GLONASS-M] 
1 45358U 20018A   26162.59325528 -.00000045  00000+0  00000+0 0  9990
2 45358  64.3584 312.6158 0008148 231.1990 128.7193  2.13102615 48542
BEIDOU-3 G3             
1 45807U 20040A   26162.93025405 -.00000339  00000+0  00000+0 0  9999
2 45807   2.4329  67.4368 0002598 338.0905 300.2018  1.00269701 22017
NAVSTAR 79 (USA 304)    
1 45854U 20041A   26161.50914235 -.00000064  00000+0  00000+0 0  9997
2 45854  56.6651  29.2031 0063583 204.6446 339.4563  2.00558723 43906
GALAXY 30 (G-30)        
1 46114U 20056C   26162.66968683  .00000054  00000+0  00000+0 0  9995
2 46114   0.0016  14.0582 0002095  71.7827 290.2690  1.00270074 21230
COSMOS 2547 [GLONASS-K] 
1 46805U 20075A   26162.31350737  .00000121  00000+0  00000+0 0  9995
2 46805  64.5991 192.6716 0009249 239.6437 120.3411  2.13100304 43787
NAVSTAR 80 (USA 309)    
1 46826U 20078A   26162.28420612  .00000085  00000+0  00000+0 0  9996
2 46826  53.9805 211.0184 0073334 207.0647 152.7945  2.00564772 41394
NAVSTAR 81 (USA 319)    
1 48859U 21054A   26162.49856854 -.00000066  00000+0  00000+0 0  9993
2 48859  55.1774 332.6886 0025307 228.5338 112.3097  2.00569194 36636
QZS-1R (MICHIBIKI-1R)   
1 49336U 21096A   26162.64809291 -.00000250  00000+0  00000+0 0  9995
2 49336  37.4503  79.6669 0754440 271.6776 276.3022  1.00257351 16959
GSAT0223 (GALILEO 27)   
1 49809U 21116A   26162.13215269 -.00000065  00000+0  00000+0 0  9997
2 49809  57.1623 341.8389 0001404 187.4451 176.2704  1.70475860 28084
GSAT0224 (GALILEO 28)   
1 49810U 21116B   26162.53111727 -.00000066  00000+0  00000+0 0  9998
2 49810  57.1633 341.8270 0000988 155.4898 205.7028  1.70475859 28111
COSMOS 2557 [GLONASS-K] 
1 52984U 22075A   26162.47782148 -.00000045  00000+0  00000+0 0  9990
2 52984  64.3020 314.6865 0010261 274.6780  85.1972  2.13102128 30591
COSMOS 2559 [GLONASS-K] 
1 54031U 22130A   26161.35892150 -.00000039  00000+0  00000+0 0  9991
2 54031  64.2757 314.8093 0012427 178.3735 181.6269  2.13101643 28547
COSMOS 2564 [GLONASS-M] 
1 54377U 22161A   26162.61001491  .00000121  00000+0  00000+0 0  9999
2 54377  64.7412 192.8969 0012121 224.5159 135.4637  2.13102006 27510
NAVSTAR 82 (USA 343)    
1 55268U 23009A   26158.73659272  .00000105  00000+0  00000+0 0  9997
2 55268  55.1215 148.8907 0006216 316.9568 225.6480  2.00572181 25052
BEIDOU-3 G4             
1 56564U 23066A   26161.36764115 -.00000265  00000+0  00000+0 0  9994
2 56564   0.4953 329.6081 0004397 171.1303  30.2733  1.00265779 11329
NVS-01 (IRNSS-1J)       
1 56759U 23076A   26162.93398073 -.00000318  00000+0  00000+0 0  9990
2 56759   2.1792 244.6021 0003123  37.7448  83.7087  1.00267373 11066
COSMOS 2569 [GLONASS-K2]
1 57517U 23114A   26162.15306541 -.00000030  00000+0  00000+0 0  9990
2 57517  65.2988  72.8239 0010896 296.8966  63.0099  2.13103660 22133
